H1 CPF  1  DGF 2022 07 06 11  6871 larets     NONE      
H2   304206 5557    27944 2022 07 06 00 00 00 2022 07 13 00 00 00    30 1 1  0 0 0
H5  0.0650
H9
10 0 59770  61200.000000  0       1429650.346         30729.982       6909381.287
10 0 59770  61230.000000  0       1588365.482       -128352.413       6873309.152
10 0 59770  61260.000000  0       1744776.894       -287994.407       6830233.602
10 0 59770  61290.000000  0       1898724.035       -448024.049       6780197.447
10 0 59770  61320.000000  0       2050049.540       -608268.245       6723250.557
10 0 59770  61350.000000  0       2198599.389       -768552.945       6659449.817
10 0 59770  61380.000000  0       2344223.069       -928703.331       6588859.077
10 0 59770  61410.000000  0       2486773.724      -1088544.006       6511549.096
10 0 59770  61440.000000  0       2626108.316      -1247899.185       6427597.479
10 0 59770  61470.000000  0       2762087.763      -1406592.893       6337088.610
10 0 59770  61500.000000  0       2894577.090      -1564449.160       6240113.564
10 0 59770  61530.000000  0       3023445.561      -1721292.214       6136770.030
10 0 59770  61560.000000  0       3148566.816      -1876946.680       6027162.215
10 0 59770  61590.000000  0       3269818.996      -2031237.775       5911400.746
10 0 59770  61620.000000  0       3387084.870      -2183991.503       5789602.569
10 0 59770  61650.000000  0       3500251.952      -2335034.860       5661890.834
10 0 59770  61680.000000  0       3609212.615      -2484196.022       5528394.783
10 0 59770  61710.000000  0       3713864.199      -2631304.555       5389249.623
10 0 59770  61740.000000  0       3814109.117      -2776191.605       5244596.397
10 0 59770  61770.000000  0       3909854.947      -2918690.099       5094581.844
10 0 59770  61800.000000  0       4001014.528      -3058634.945       4939358.258
10 0 59770  61830.000000  0       4087506.042      -3195863.219       4779083.337
10 0 59770  61860.000000  0       4169253.097      -3330214.368       4613920.031
10 0 59770  61890.000000  0       4246184.800      -3461530.396       4444036.371
10 0 59770  61920.000000  0       4318235.823      -3589656.062       4269605.308
10 0 59770  61950.000000  0       4385346.464      -3714439.060       4090804.537
10 0 59770  61980.000000  0       4447462.701      -3835730.212       3907816.318
10 0 59770  62010.000000  0       4504536.241      -3953383.648       3720827.292
10 0 59770  62040.000000  0       4556524.561      -4067256.990       3530028.289
10 0 59770  62070.000000  0       4603390.946      -4177211.526       3335614.133
10 0 59770  62100.000000  0       4645104.512      -4283112.385       3137783.438
10 0 59770  62130.000000  0       4681640.229      -4384828.707       2936738.407
10 0 59770  62160.000000  0       4712978.935      -4482233.806       2732684.613
10 0 59770  62190.000000  0       4739107.335      -4575205.332       2525830.796
10 0 59770  62220.000000  0       4760018.011      -4663625.430       2316388.636
10 0 59770  62250.000000  0       4775709.403      -4747380.888       2104572.538
10 0 59770  62280.000000  0       4786185.804      -4826363.287       1890599.403
10 0 59770  62310.000000  0       4791457.330      -4900469.144       1674688.401
10 0 59770  62340.000000  0       4791539.897      -4969600.045       1457060.738
10 0 59770  62370.000000  0       4786455.181      -5033662.781       1237939.426
10 0 59770  62400.000000  0       4776230.573      -5092569.468       1017549.038
10 0 59770  62430.000000  0       4760899.131      -5146237.669        796115.476
10 0 59770  62460.000000  0       4740499.519      -5194590.498        573865.731
10 0 59770  62490.000000  0       4715075.945      -5237556.732        351027.642
10 0 59770  62520.000000  0       4684678.095      -5275070.906        127829.658
10 0 59770  62550.000000  0       4649361.058      -5307073.409        -95499.411
10 0 59770  62580.000000  0       4609185.242      -5333510.572       -318730.634
10 0 59770  62610.000000  0       4564216.286      -5354334.745       -541635.211
10 0 59770  62640.000000  0       4514524.958      -5369504.365       -763984.718
10 0 59770  62670.000000  0       4460187.054      -5378984.021       -985551.345
10 0 59770  62700.000000  0       4401283.290      -5382744.507      -1206108.142
10 0 59770  62730.000000  0       4337899.187      -5380762.869      -1425429.257
10 0 59770  62760.000000  0       4270124.948      -5373022.451      -1643290.173
10 0 59770  62790.000000  0       4198055.341      -5359512.924      -1859467.950
10 0 59770  62820.000000  0       4121789.565      -5340230.314      -2073741.456
10 0 59770  62850.000000  0       4041431.116      -5315177.019      -2285891.603
10 0 59770  62880.000000  0       3957087.647      -5284361.820      -2495701.582
10 0 59770  62910.000000  0       3868870.825      -5247799.881      -2702957.083
10 0 59770  62940.000000  0       3776896.179      -5205512.739      -2907446.523
10 0 59770  62970.000000  0       3681282.949      -5157528.299      -3108961.263
10 0 59770  63000.000000  0       3582153.931      -5103880.807      -3307295.823
10 0 59770  63030.000000  0       3479635.317      -5044610.829      -3502248.096
10 0 59770  63060.000000  0       3373856.528      -4979765.214      -3693619.556
10 0 59770  63090.000000  0       3264950.056      -4909397.051      -3881215.459
10 0 59770  63120.000000  0       3153051.285      -4833565.619      -4064845.047
10 0 59770  63150.000000  0       3038298.328      -4752336.330      -4244321.737
10 0 59770  63180.000000  0       2920831.846      -4665780.664      -4419463.307
10 0 59770  63210.000000  0       2800794.876      -4573976.095      -4590092.086
10 0 59770  63240.000000  0       2678332.652      -4477006.015      -4756035.119
10 0 59770  63270.000000  0       2553592.427      -4374959.646      -4917124.344
10 0 59770  63300.000000  0       2426723.293      -4267931.951      -5073196.753
10 0 59770  63330.000000  0       2297876.004      -4156023.536      -5224094.547
10 0 59770  63360.000000  0       2167202.794      -4039340.549      -5369665.291
10 0 59770  63390.000000  0       2034857.196      -3917994.575      -5509762.059
10 0 59770  63420.000000  0       1900993.862      -3792102.519      -5644243.580
10 0 59770  63450.000000  0       1765768.380      -3661786.489      -5772974.368
10 0 59770  63480.000000  0       1629337.090      -3527173.670      -5895824.853
10 0 59770  63510.000000  0       1491856.906      -3388396.193      -6012671.501
10 0 59770  63540.000000  0       1353485.135      -3245591.004      -6123396.934
10 0 59770  63570.000000  0       1214379.292      -3098899.717      -6227890.037
10 0 59770  63600.000000  0       1074696.926      -2948468.472      -6326046.066
10 0 59770  63630.000000  0        934595.436      -2794447.782      -6417766.735
10 0 59770  63660.000000  0        794231.901      -2636992.376      -6502960.313
10 0 59770  63690.000000  0        653762.897      -2476261.042      -6581541.703
10 0 59770  63720.000000  0        513344.335      -2312416.462      -6653432.515
10 0 59770  63750.000000  0        373131.280      -2145625.043      -6718561.138
10 0 59770  63780.000000  0        233277.788      -1976056.750      -6776862.803
10 0 59770  63810.000000  0         93936.741      -1803884.929      -6828279.636
10 0 59770  63840.000000  0        -44740.321      -1629286.126      -6872760.711
10 0 59770  63870.000000  0       -182603.356      -1452439.913      -6910262.090
10 0 59770  63900.000000  0       -319503.984      -1273528.697      -6940746.863
10 0 59770  63930.000000  0       -455295.638      -1092737.535      -6964185.176
10 0 59770  63960.000000  0       -589833.720       -910253.948      -6980554.258
10 0 59770  63990.000000  0       -722975.755       -726267.724      -6989838.435
10 0 59770  64020.000000  0       -854581.537       -540970.722      -6992029.144
10 0 59770  64050.000000  0       -984513.273       -354556.678      -6987124.934
10 0 59770  64080.000000  0      -1112635.728       -167221.005      -6975131.464
10 0 59770  64110.000000  0      -1238816.358         20839.408      -6956061.492
10 0 59770  64140.000000  0      -1362925.449        209426.399      -6929934.867
10 0 59770  64170.000000  0      -1484836.242        398340.738      -6896778.502
10 0 59770  64200.000000  0      -1604425.066        587382.333      -6856626.353
10 0 59770  64230.000000  0      -1721571.453        776350.443      -6809519.380
10 0 59770  64260.000000  0      -1836158.264        965043.886      -6755505.511
10 0 59770  64290.000000  0      -1948071.797       1153261.246      -6694639.590
10 0 59770  64320.000000  0      -2057201.899       1340801.088      -6626983.327
10 0 59770  64350.000000  0      -2163442.076       1527462.161      -6552605.243
10 0 59770  64380.000000  0      -2266689.594       1713043.616      -6471580.604
10 0 59770  64410.000000  0      -2366845.580       1897345.220      -6383991.356
10 0 59770  64440.000000  0      -2463815.119       2080167.571      -6289926.043
10 0 59770  64470.000000  0      -2557507.338       2261312.310      -6189479.723
10 0 59770  64500.000000  0      -2647835.493       2440582.338      -6082753.882
10 0 59770  64530.000000  0      -2734717.050       2617782.024      -5969856.331
10 0 59770  64560.000000  0      -2818073.759       2792717.421      -5850901.117
10 0 59770  64590.000000  0      -2897831.727       2965196.479      -5726008.404
10 0 59770  64620.000000  0      -2973921.487       3135029.251      -5595304.368
10 0 59770  64650.000000  0      -3046278.057       3302028.111      -5458921.069
10 0 59770  64680.000000  0      -3114841.002       3466007.958      -5316996.332
10 0 59770  64710.000000  0      -3179554.478       3626786.424      -5169673.605
10 0 59770  64740.000000  0      -3240367.288       3784184.078      -5017101.827
10 0 59770  64770.000000  0      -3297232.911       3938024.632      -4859435.281
99
